QIANFAN-52              
1 62253U 24232S   26073.93861428  .00000091  00000+0  12223-3 0  9992
2 62253  89.0070  31.8050 0013431 290.2412  69.7295 13.51002304 80390
QIANFAN-53              
1 62254U 24232T   26073.91799193  .00000090  00000+0  12168-3 0  9997
2 62254  89.0077  31.9185 0012342 292.0053  67.9786 13.51005093 80358
QIANFAN-54              
1 62255U 24232U   26073.88511821  .00000095  00000+0  12921-3 0  9996
2 62255  89.0068  31.5923 0002458  25.8015 334.3259 13.51004624111857
QIANFAN-55              
1 62785U 25016A   26073.91122291  .00000057  00000+0  68593-4 0  9993
2 62785  88.9683  93.6678 0019462  83.5470 276.7896 13.50996887 59634
QIANFAN-56              
1 62786U 25016B   26073.92758287  .00000057  00000+0  70018-4 0  9990
2 62786  88.9657  93.4776 0018125  85.7199 274.6022 13.50998599 59685
QIANFAN-57              
1 62787U 25016C   26073.88650066  .00000055  00000+0  66277-4 0  9992
2 62787  88.9688  93.6642 0001525 108.3545 251.7772 13.50997634 59640
QIANFAN-58              
1 62788U 25016D   26073.93168794  .00000056  00000+0  67048-4 0  9999
2 62788  88.9658  93.4626 0015973  79.2447 281.0501 13.50999180 59696
QIANFAN-59              
1 62789U 25016E   26073.95648479  .00000046  00000+0  52129-4 0  9998
2 62789  88.9681  93.5556 0016374  82.4409 277.8602 13.51007594 59691
QIANFAN-60              
1 62790U 25016F   26073.91532961  .00000041  00000+0  44544-4 0  9991
2 62790  88.9662  93.5137 0017896  79.2431 281.0734 13.51009780 59676
QIANFAN-61              
1 62791U 25016G   26073.94825736  .00000043  00000+0  47140-4 0  9997
2 62791  88.9729  93.7361 0016811  78.7527 281.5513 13.51006238 59695
QIANFAN-62              
1 62792U 25016H   26073.95237278  .00000046  00000+0  52726-4 0  9996
2 62792  88.9676  93.5542 0018196  78.9063 281.4133 13.50997011 59684
QIANFAN-63              
1 62793U 25016J   26071.97752288 -.02122006  00000+0 -36135+1 0  9997
2 62793  88.9681  93.7208 0018229  96.0583 264.2645 13.49196539 59453
QIANFAN-64              
1 62794U 25016K   26073.94413881  .00000048  00000+0  56054-4 0  9993
2 62794  88.9669  93.4744 0016170  77.6788 282.6172 13.51005974 59710
QIANFAN-65              
1 62795U 25016L   26073.93990892  .00000052  00000+0  61930-4 0  9999
2 62795  88.9666  93.4976 0016038  79.1799 281.1157 13.51009238 59698
QIANFAN-66              
1 62796U 25016M   26073.89473272  .00000056  00000+0  68331-4 0  9999
2 62796  88.9685  93.4906 0017093  75.3615 284.9430 13.50997345 59734
QIANFAN-67              
1 62797U 25016N   26073.89880609  .00000053  00000+0  63616-4 0  9994
2 62797  88.9675  93.5066 0017135  81.4018 278.9073 13.50995737 59700
QIANFAN-68              
1 62798U 25016P   26073.89064824  .00000058  00000+0  70980-4 0  9995
2 62798  88.9679  93.5561 0017172  79.8946 280.4141 13.51005716 59688
