[{"OBJECT_NAME":"QIANFAN-52","OBJECT_ID":"2024-232S","EPOCH":"2026-03-14T22:31:36.273792","MEAN_MOTION":13.51002304,"ECCENTRICITY":0.00134314,"INCLINATION":89.007,"RA_OF_ASC_NODE":31.805,"ARG_OF_PERICENTER":290.2412,"MEAN_ANOMALY":69.7295,"EPHEMERIS_TYPE":0,"CLASSIFICATION_TYPE":"U","NORAD_CAT_ID":62253,"ELEMENT_SET_NO":999,"REV_AT_EPOCH":8039,"BSTAR":0.00012222651,"MEAN_MOTION_DOT":9.1e-7,"MEAN_MOTION_DDOT":0},{"OBJECT_NAME":"QIANFAN-53","OBJECT_ID":"2024-232T","EPOCH":"2026-03-14T22:01:54.502752","MEAN_MOTION":13.51005093,"ECCENTRICITY":0.00123422,"INCLINATION":89.0077,"RA_OF_ASC_NODE":31.9185,"ARG_OF_PERICENTER":292.0053,"MEAN_ANOMALY":67.9786,"EPHEMERIS_TYPE":0,"CLASSIFICATION_TYPE":"U","NORAD_CAT_ID":62254,"ELEMENT_SET_NO":999,"REV_AT_EPOCH":8035,"BSTAR":0.00012167867,"MEAN_MOTION_DOT":9.0e-7,"MEAN_MOTION_DDOT":0},{"OBJECT_NAME":"QIANFAN-54","OBJECT_ID":"2024-232U","EPOCH":"2026-03-14T21:14:34.213344","MEAN_MOTION":13.51004624,"ECCENTRICITY":0.00024585,"INCLINATION":89.0068,"RA_OF_ASC_NODE":31.5923,"ARG_OF_PERICENTER":25.8015,"MEAN_ANOMALY":334.3259,"EPHEMERIS_TYPE":0,"CLASSIFICATION_TYPE":"U","NORAD_CAT_ID":62255,"ELEMENT_SET_NO":999,"REV_AT_EPOCH":11185,"BSTAR":0.00012920963,"MEAN_MOTION_DOT":9.5e-7,"MEAN_MOTION_DDOT":0},{"OBJECT_NAME":"QIANFAN-55","OBJECT_ID":"2025-016A","EPOCH":"2026-03-14T21:52:09.659424","MEAN_MOTION":13.50996887,"ECCENTRICITY":0.0019462,"INCLINATION":88.9683,"RA_OF_ASC_NODE":93.6678,"ARG_OF_PERICENTER":83.547,"MEAN_ANOMALY":276.7896,"EPHEMERIS_TYPE":0,"CLASSIFICATION_TYPE":"U","NORAD_CAT_ID":62785,"ELEMENT_SET_NO":999,"REV_AT_EPOCH":5963,"BSTAR":6.8592583e-5,"MEAN_MOTION_DOT":5.7e-7,"MEAN_MOTION_DDOT":0},{"OBJECT_NAME":"QIANFAN-56","OBJECT_ID":"2025-016B","EPOCH":"2026-03-14T22:15:43.159968","MEAN_MOTION":13.50998599,"ECCENTRICITY":0.0018125,"INCLINATION":88.9657,"RA_OF_ASC_NODE":93.4776,"ARG_OF_PERICENTER":85.7199,"MEAN_ANOMALY":274.6022,"EPHEMERIS_TYPE":0,"CLASSIFICATION_TYPE":"U","NORAD_CAT_ID":62786,"ELEMENT_SET_NO":999,"REV_AT_EPOCH":5968,"BSTAR":7.001808e-5,"MEAN_MOTION_DOT":5.7e-7,"MEAN_MOTION_DDOT":0},{"OBJECT_NAME":"QIANFAN-57","OBJECT_ID":"2025-016C","EPOCH":"2026-03-14T21:16:33.657024","MEAN_MOTION":13.50997634,"ECCENTRICITY":0.00015259,"INCLINATION":88.9688,"RA_OF_ASC_NODE":93.6642,"ARG_OF_PERICENTER":108.3545,"MEAN_ANOMALY":251.7772,"EPHEMERIS_TYPE":0,"CLASSIFICATION_TYPE":"U","NORAD_CAT_ID":62787,"ELEMENT_SET_NO":999,"REV_AT_EPOCH":5964,"BSTAR":6.6277461e-5,"MEAN_MOTION_DOT":5.5e-7,"MEAN_MOTION_DDOT":0},{"OBJECT_NAME":"QIANFAN-58","OBJECT_ID":"2025-016D","EPOCH":"2026-03-14T22:21:37.838016","MEAN_MOTION":13.5099918,"ECCENTRICITY":0.00159738,"INCLINATION":88.9658,"RA_OF_ASC_NODE":93.4626,"ARG_OF_PERICENTER":79.2447,"MEAN_ANOMALY":281.0501,"EPHEMERIS_TYPE":0,"CLASSIFICATION_TYPE":"U","NORAD_CAT_ID":62788,"ELEMENT_SET_NO":999,"REV_AT_EPOCH":5969,"BSTAR":6.7047945e-5,"MEAN_MOTION_DOT":5.6e-7,"MEAN_MOTION_DDOT":0},{"OBJECT_NAME":"QIANFAN-59","OBJECT_ID":"2025-016E","EPOCH":"2026-03-14T22:57:20.285856","MEAN_MOTION":13.51007594,"ECCENTRICITY":0.0016374,"INCLINATION":88.9681,"RA_OF_ASC_NODE":93.5556,"ARG_OF_PERICENTER":82.4409,"MEAN_ANOMALY":277.8602,"EPHEMERIS_TYPE":0,"CLASSIFICATION_TYPE":"U","NORAD_CAT_ID":62789,"ELEMENT_SET_NO":999,"REV_AT_EPOCH":5969,"BSTAR":5.2128947e-5,"MEAN_MOTION_DOT":4.6e-7,"MEAN_MOTION_DDOT":0},{"OBJECT_NAME":"QIANFAN-60","OBJECT_ID":"2025-016F","EPOCH":"2026-03-14T21:58:04.478304","MEAN_MOTION":13.5100978,"ECCENTRICITY":0.00178964,"INCLINATION":88.9662,"RA_OF_ASC_NODE":93.5137,"ARG_OF_PERICENTER":79.2431,"MEAN_ANOMALY":281.0734,"EPHEMERIS_TYPE":0,"CLASSIFICATION_TYPE":"U","NORAD_CAT_ID":62790,"ELEMENT_SET_NO":999,"REV_AT_EPOCH":5967,"BSTAR":4.4543544e-5,"MEAN_MOTION_DOT":4.1e-7,"MEAN_MOTION_DDOT":0},{"OBJECT_NAME":"QIANFAN-61","OBJECT_ID":"2025-016G","EPOCH":"2026-03-14T22:45:29.435904","MEAN_MOTION":13.51006238,"ECCENTRICITY":0.0016811,"INCLINATION":88.9729,"RA_OF_ASC_NODE":93.7361,"ARG_OF_PERICENTER":78.7527,"MEAN_ANOMALY":281.5513,"EPHEMERIS_TYPE":0,"CLASSIFICATION_TYPE":"U","NORAD_CAT_ID":62791,"ELEMENT_SET_NO":999,"REV_AT_EPOCH":5969,"BSTAR":4.7139919e-5,"MEAN_MOTION_DOT":4.3e-7,"MEAN_MOTION_DDOT":0},{"OBJECT_NAME":"QIANFAN-62","OBJECT_ID":"2025-016H","EPOCH":"2026-03-14T22:51:25.008192","MEAN_MOTION":13.50997011,"ECCENTRICITY":0.00181964,"INCLINATION":88.9676,"RA_OF_ASC_NODE":93.5542,"ARG_OF_PERICENTER":78.9063,"MEAN_ANOMALY":281.4133,"EPHEMERIS_TYPE":0,"CLASSIFICATION_TYPE":"U","NORAD_CAT_ID":62792,"ELEMENT_SET_NO":999,"REV_AT_EPOCH":5968,"BSTAR":5.2725728e-5,"MEAN_MOTION_DOT":4.6e-7,"MEAN_MOTION_DDOT":0},{"OBJECT_NAME":"QIANFAN-63","OBJECT_ID":"2025-016J","EPOCH":"2026-03-12T23:27:37.976832","MEAN_MOTION":13.49196539,"ECCENTRICITY":0.00182299,"INCLINATION":88.9681,"RA_OF_ASC_NODE":93.7208,"ARG_OF_PERICENTER":96.0583,"MEAN_ANOMALY":264.2645,"EPHEMERIS_TYPE":0,"CLASSIFICATION_TYPE":"U","NORAD_CAT_ID":62793,"ELEMENT_SET_NO":999,"REV_AT_EPOCH":5945,"BSTAR":-3.6135436,"MEAN_MOTION_DOT":-0.02122006,"MEAN_MOTION_DDOT":0},{"OBJECT_NAME":"QIANFAN-64","OBJECT_ID":"2025-016K","EPOCH":"2026-03-14T22:39:33.593184","MEAN_MOTION":13.51005974,"ECCENTRICITY":0.00161706,"INCLINATION":88.9669,"RA_OF_ASC_NODE":93.4744,"ARG_OF_PERICENTER":77.6788,"MEAN_ANOMALY":282.6172,"EPHEMERIS_TYPE":0,"CLASSIFICATION_TYPE":"U","NORAD_CAT_ID":62794,"ELEMENT_SET_NO":999,"REV_AT_EPOCH":5971,"BSTAR":5.6053754e-5,"MEAN_MOTION_DOT":4.8e-7,"MEAN_MOTION_DDOT":0},{"OBJECT_NAME":"QIANFAN-65","OBJECT_ID":"2025-016L","EPOCH":"2026-03-14T22:33:28.130688","MEAN_MOTION":13.51009238,"ECCENTRICITY":0.00160385,"INCLINATION":88.9666,"RA_OF_ASC_NODE":93.4976,"ARG_OF_PERICENTER":79.1799,"MEAN_ANOMALY":281.1157,"EPHEMERIS_TYPE":0,"CLASSIFICATION_TYPE":"U","NORAD_CAT_ID":62795,"ELEMENT_SET_NO":999,"REV_AT_EPOCH":5969,"BSTAR":6.1930272e-5,"MEAN_MOTION_DOT":5.2e-7,"MEAN_MOTION_DDOT":0},{"OBJECT_NAME":"QIANFAN-66","OBJECT_ID":"2025-016M","EPOCH":"2026-03-14T21:28:24.907008","MEAN_MOTION":13.50997345,"ECCENTRICITY":0.00170931,"INCLINATION":88.9685,"RA_OF_ASC_NODE":93.4906,"ARG_OF_PERICENTER":75.3615,"MEAN_ANOMALY":284.943,"EPHEMERIS_TYPE":0,"CLASSIFICATION_TYPE":"U","NORAD_CAT_ID":62796,"ELEMENT_SET_NO":999,"REV_AT_EPOCH":5973,"BSTAR":6.8330918e-5,"MEAN_MOTION_DOT":5.6e-7,"MEAN_MOTION_DDOT":0},{"OBJECT_NAME":"QIANFAN-67","OBJECT_ID":"2025-016N","EPOCH":"2026-03-14T21:34:16.846176","MEAN_MOTION":13.50995737,"ECCENTRICITY":0.00171356,"INCLINATION":88.9675,"RA_OF_ASC_NODE":93.5066,"ARG_OF_PERICENTER":81.4018,"MEAN_ANOMALY":278.9073,"EPHEMERIS_TYPE":0,"CLASSIFICATION_TYPE":"U","NORAD_CAT_ID":62797,"ELEMENT_SET_NO":999,"REV_AT_EPOCH":5970,"BSTAR":6.3615962e-5,"MEAN_MOTION_DOT":5.3e-7,"MEAN_MOTION_DDOT":0},{"OBJECT_NAME":"QIANFAN-68","OBJECT_ID":"2025-016P","EPOCH":"2026-03-14T21:22:32.007936","MEAN_MOTION":13.51005716,"ECCENTRICITY":0.00171724,"INCLINATION":88.9679,"RA_OF_ASC_NODE":93.5561,"ARG_OF_PERICENTER":79.8946,"MEAN_ANOMALY":280.4141,"EPHEMERIS_TYPE":0,"CLASSIFICATION_TYPE":"U","NORAD_CAT_ID":62798,"ELEMENT_SET_NO":999,"REV_AT_EPOCH":5968,"BSTAR":7.0979619e-5,"MEAN_MOTION_DOT":5.8e-7,"MEAN_MOTION_DDOT":0}]
